SKYKRAFT-1A             
1 55054U 23001AX  26068.71064616  .00008177  00000+0  30069-3 0  9991
2 55054  97.3349 127.6290 0011277 121.5092 238.7251 15.28083228176529
STARLINK-31723          
1 59553U 24074V   26068.16037374 -.00001708  00000+0 -52544-4 0  9998
2 59553  43.0038 346.4895 0001370 262.8323  97.2372 15.27587631105936
